CCSDS_OMM_VERS = 2.0
CREATION_DATE  = 
ORIGINATOR     = 

OBJECT_NAME    = SL-14 R/B
OBJECT_ID      = 1991-042B
CENTER_NAME    = EARTH
REF_FRAME      = TEME
TIME_SYSTEM    = UTC
MEAN_ELEMENT_THEORY = SGP/SGP4

EPOCH          = 2026-02-26T21:15:54.167904
MEAN_MOTION    = 14.81816533
ECCENTRICITY   = .0015558
INCLINATION    = 82.4904
RA_OF_ASC_NODE = 230.3143
ARG_OF_PERICENTER = 277.3622
MEAN_ANOMALY   = 82.5823

EPHEMERIS_TYPE = 0
CLASSIFICATION_TYPE = U
NORAD_CAT_ID   = 21423
ELEMENT_SET_NO = 999
REV_AT_EPOCH   = 85147
BSTAR          = .58177E-4
MEAN_MOTION_DOT = .483E-5
MEAN_MOTION_DDOT = 0

CCSDS_OMM_VERS = 2.0
CREATION_DATE  = 
ORIGINATOR     = 

OBJECT_NAME    = ERS-1
OBJECT_ID      = 1991-050A
CENTER_NAME    = EARTH
REF_FRAME      = TEME
TIME_SYSTEM    = UTC
MEAN_ELEMENT_THEORY = SGP/SGP4

EPOCH          = 2026-02-27T06:29:43.974240
MEAN_MOTION    = 14.39439864
ECCENTRICITY   = .00311087
INCLINATION    = 98.7888
RA_OF_ASC_NODE = 76.2433
ARG_OF_PERICENTER = 231.9305
MEAN_ANOMALY   = 127.9075

EPHEMERIS_TYPE = 0
CLASSIFICATION_TYPE = U
NORAD_CAT_ID   = 21574
ELEMENT_SET_NO = 999
REV_AT_EPOCH   = 81423
BSTAR          = .12540645E-3
MEAN_MOTION_DOT = .346E-5
MEAN_MOTION_DDOT = 0

CCSDS_OMM_VERS = 2.0
CREATION_DATE  = 
ORIGINATOR     = 

OBJECT_NAME    = ARIANE 40 R/B
OBJECT_ID      = 1991-050F
CENTER_NAME    = EARTH
REF_FRAME      = TEME
TIME_SYSTEM    = UTC
MEAN_ELEMENT_THEORY = SGP/SGP4

EPOCH          = 2026-02-27T03:19:13.027872
MEAN_MOTION    = 14.42884650
ECCENTRICITY   = .00043805
INCLINATION    = 98.2036
RA_OF_ASC_NODE = 110.7698
ARG_OF_PERICENTER = 103.9798
MEAN_ANOMALY   = 256.1881

EPHEMERIS_TYPE = 0
CLASSIFICATION_TYPE = U
NORAD_CAT_ID   = 21610
ELEMENT_SET_NO = 999
REV_AT_EPOCH   = 81747
BSTAR          = .10002827E-3
MEAN_MOTION_DOT = .292E-5
MEAN_MOTION_DDOT = 0

CCSDS_OMM_VERS = 2.0
CREATION_DATE  = 
ORIGINATOR     = 

OBJECT_NAME    = INTERCOSMOS 25
OBJECT_ID      = 1991-086A
CENTER_NAME    = EARTH
REF_FRAME      = TEME
TIME_SYSTEM    = UTC
MEAN_ELEMENT_THEORY = SGP/SGP4

EPOCH          = 2026-02-27T04:09:04.505184
MEAN_MOTION    = 12.11965067
ECCENTRICITY   = .14870898
INCLINATION    = 82.6069
RA_OF_ASC_NODE = 316.3638
ARG_OF_PERICENTER = 139.5889
MEAN_ANOMALY   = 232.5830

EPHEMERIS_TYPE = 0
CLASSIFICATION_TYPE = U
NORAD_CAT_ID   = 21819
ELEMENT_SET_NO = 999
REV_AT_EPOCH   = 49541
BSTAR          = .29829352E-3
MEAN_MOTION_DOT = .1553E-4
MEAN_MOTION_DDOT = 0

CCSDS_OMM_VERS = 2.0
CREATION_DATE  = 
ORIGINATOR     = 

OBJECT_NAME    = SL-8 R/B
OBJECT_ID      = 1992-008B
CENTER_NAME    = EARTH
REF_FRAME      = TEME
TIME_SYSTEM    = UTC
MEAN_ELEMENT_THEORY = SGP/SGP4

EPOCH          = 2026-02-27T02:46:43.519872
MEAN_MOTION    = 13.75969910
ECCENTRICITY   = .00350126
INCLINATION    = 82.9232
RA_OF_ASC_NODE = 275.6459
ARG_OF_PERICENTER = 162.2302
MEAN_ANOMALY   = 311.6617

EPHEMERIS_TYPE = 0
CLASSIFICATION_TYPE = U
NORAD_CAT_ID   = 21876
ELEMENT_SET_NO = 999
REV_AT_EPOCH   = 70796
BSTAR          = -.3992746E-5
MEAN_MOTION_DOT = .12E-6
MEAN_MOTION_DDOT = 0

CCSDS_OMM_VERS = 2.0
CREATION_DATE  = 
ORIGINATOR     = 

OBJECT_NAME    = SL-8 R/B
OBJECT_ID      = 1992-020B
CENTER_NAME    = EARTH
REF_FRAME      = TEME
TIME_SYSTEM    = UTC
MEAN_ELEMENT_THEORY = SGP/SGP4

EPOCH          = 2026-02-27T06:48:43.803648
MEAN_MOTION    = 13.75548136
ECCENTRICITY   = .00281071
INCLINATION    = 82.9343
RA_OF_ASC_NODE = 161.4852
ARG_OF_PERICENTER = 328.9963
MEAN_ANOMALY   = 59.1306

EPHEMERIS_TYPE = 0
CLASSIFICATION_TYPE = U
NORAD_CAT_ID   = 21938
ELEMENT_SET_NO = 999
REV_AT_EPOCH   = 69970
BSTAR          = .59054542E-4
MEAN_MOTION_DOT = .72E-6
MEAN_MOTION_DDOT = 0

CCSDS_OMM_VERS = 2.0
CREATION_DATE  = 
ORIGINATOR     = 

OBJECT_NAME    = USA 81
OBJECT_ID      = 1992-023A
CENTER_NAME    = EARTH
REF_FRAME      = TEME
TIME_SYSTEM    = UTC
MEAN_ELEMENT_THEORY = SGP/SGP4

EPOCH          = 2026-02-27T05:59:59.167968
MEAN_MOTION    = 14.32363941
ECCENTRICITY   = .0002713
INCLINATION    = 85.0105
RA_OF_ASC_NODE = 137.4625
ARG_OF_PERICENTER = 86.4891
MEAN_ANOMALY   = 273.6611

EPHEMERIS_TYPE = 0
CLASSIFICATION_TYPE = U
NORAD_CAT_ID   = 21949
ELEMENT_SET_NO = 999
REV_AT_EPOCH   = 9329
BSTAR          = .59041217E-4
MEAN_MOTION_DOT = .179E-5
MEAN_MOTION_DDOT = 0

CCSDS_OMM_VERS = 2.0
CREATION_DATE  = 
ORIGINATOR     = 

OBJECT_NAME    = COSMOS 2219
OBJECT_ID      = 1992-076A
CENTER_NAME    = EARTH
REF_FRAME      = TEME
TIME_SYSTEM    = UTC
MEAN_ELEMENT_THEORY = SGP/SGP4

EPOCH          = 2026-02-27T06:20:06.766944
MEAN_MOTION    = 14.14085759
ECCENTRICITY   = .00194962
INCLINATION    = 71.0605
RA_OF_ASC_NODE = 39.8616
ARG_OF_PERICENTER = 220.9569
MEAN_ANOMALY   = 139.0090

EPHEMERIS_TYPE = 0
CLASSIFICATION_TYPE = U
NORAD_CAT_ID   = 22219
ELEMENT_SET_NO = 999
REV_AT_EPOCH   = 71690
BSTAR          = .22066358E-3
MEAN_MOTION_DOT = .374E-5
MEAN_MOTION_DDOT = 0

CCSDS_OMM_VERS = 2.0
CREATION_DATE  = 
ORIGINATOR     = 

OBJECT_NAME    = SL-16 R/B
OBJECT_ID      = 1992-076B
CENTER_NAME    = EARTH
REF_FRAME      = TEME
TIME_SYSTEM    = UTC
MEAN_ELEMENT_THEORY = SGP/SGP4

EPOCH          = 2026-02-27T04:46:52.298688
MEAN_MOTION    = 14.16857949
ECCENTRICITY   = .00108322
INCLINATION    = 70.9990
RA_OF_ASC_NODE = 210.4699
ARG_OF_PERICENTER = 115.6235
MEAN_ANOMALY   = 57.6886

EPHEMERIS_TYPE = 0
CLASSIFICATION_TYPE = U
NORAD_CAT_ID   = 22220
ELEMENT_SET_NO = 999
REV_AT_EPOCH   = 72034
BSTAR          = .16508354E-3
MEAN_MOTION_DOT = .283E-5
MEAN_MOTION_DDOT = 0

CCSDS_OMM_VERS = 2.0
CREATION_DATE  = 
ORIGINATOR     = 

OBJECT_NAME    = COSMOS 2221
OBJECT_ID      = 1992-080A
CENTER_NAME    = EARTH
REF_FRAME      = TEME
TIME_SYSTEM    = UTC
MEAN_ELEMENT_THEORY = SGP/SGP4

EPOCH          = 2026-02-27T03:17:50.073504
MEAN_MOTION    = 14.96153847
ECCENTRICITY   = .00131345
INCLINATION    = 82.5028
RA_OF_ASC_NODE = 289.1899
ARG_OF_PERICENTER = 224.5505
MEAN_ANOMALY   = 135.4662

EPHEMERIS_TYPE = 0
CLASSIFICATION_TYPE = U
NORAD_CAT_ID   = 22236
ELEMENT_SET_NO = 999
REV_AT_EPOCH   = 77921
BSTAR          = .15127427E-3
MEAN_MOTION_DOT = .1731E-4
MEAN_MOTION_DDOT = 0

CCSDS_OMM_VERS = 2.0
CREATION_DATE  = 
ORIGINATOR     = 

OBJECT_NAME    = SL-16 R/B
OBJECT_ID      = 1992-093B
CENTER_NAME    = EARTH
REF_FRAME      = TEME
TIME_SYSTEM    = UTC
MEAN_ELEMENT_THEORY = SGP/SGP4

EPOCH          = 2026-02-27T06:43:40.249344
MEAN_MOTION    = 14.15449672
ECCENTRICITY   = .00060913
INCLINATION    = 71.0231
RA_OF_ASC_NODE = 26.1162
ARG_OF_PERICENTER = 304.7697
MEAN_ANOMALY   = 55.2852

EPHEMERIS_TYPE = 0
CLASSIFICATION_TYPE = U
NORAD_CAT_ID   = 22285
ELEMENT_SET_NO = 999
REV_AT_EPOCH   = 71168
BSTAR          = .42994614E-4
MEAN_MOTION_DOT = .36E-6
MEAN_MOTION_DDOT = 0

CCSDS_OMM_VERS = 2.0
CREATION_DATE  = 
ORIGINATOR     = 

OBJECT_NAME    = COSMOS 2228
OBJECT_ID      = 1992-094A
CENTER_NAME    = EARTH
REF_FRAME      = TEME
TIME_SYSTEM    = UTC
MEAN_ELEMENT_THEORY = SGP/SGP4

EPOCH          = 2026-02-27T07:03:53.354592
MEAN_MOTION    = 14.97130907
ECCENTRICITY   = .00174873
INCLINATION    = 82.5146
RA_OF_ASC_NODE = 247.2656
ARG_OF_PERICENTER = 341.4943
MEAN_ANOMALY   = 18.5641

EPHEMERIS_TYPE = 0
CLASSIFICATION_TYPE = U
NORAD_CAT_ID   = 22286
ELEMENT_SET_NO = 999
REV_AT_EPOCH   = 77450
BSTAR          = .17134456E-3
MEAN_MOTION_DOT = .2009E-4
MEAN_MOTION_DDOT = 0

