SL-14 R/B               
1 21423U 91042B   26057.88604361  .00000483  00000+0  58177-4 0  9990
2 21423  82.4904 230.3143 0015558 277.3622  82.5823 14.81816533851473
ERS-1                   
1 21574U 91050A   26058.27064785  .00000346  00000+0  12541-3 0  9992
2 21574  98.7888  76.2433 0031108 231.9305 127.9075 14.39439864814230
ARIANE 40 R/B           
1 21610U 91050F   26058.13834523  .00000292  00000+0  10003-3 0  9994
2 21610  98.2036 110.7698 0004380 103.9798 256.1881 14.42884650817474
INTERCOSMOS 25          
1 21819U 91086A   26058.17296881  .00001553  00000+0  29829-3 0  9994
2 21819  82.6069 316.3638 1487089 139.5889 232.5830 12.11965067495418
SL-8 R/B                
1 21876U 92008B   26058.11578148  .00000012  00000+0 -39927-5 0  9997
2 21876  82.9232 275.6459 0035012 162.2302 311.6617 13.75969910707961
SL-8 R/B                
1 21938U 92020B   26058.28384032  .00000072  00000+0  59055-4 0  9993
2 21938  82.9343 161.4852 0028107 328.9963  59.1306 13.75548136699707
USA 81                  
1 21949U 92023A   26058.24999037  .00000179  00000+0  59041-4 0  9994
2 21949  85.0105 137.4625 0002713  86.4891 273.6611 14.32363941 93298
COSMOS 2219             
1 22219U 92076A   26058.26396721  .00000374  00000+0  22066-3 0  9999
2 22219  71.0605  39.8616 0019496 220.9569 139.0090 14.14085759716901
SL-16 R/B               
1 22220U 92076B   26058.19921642  .00000283  00000+0  16508-3 0  9992
2 22220  70.9990 210.4699 0010832 115.6235  57.6886 14.16857949720342
COSMOS 2221             
1 22236U 92080A   26058.13738511  .00001731  00000+0  15127-3 0  9994
2 22236  82.5028 289.1899 0013134 224.5505 135.4662 14.96153847779214
SL-16 R/B               
1 22285U 92093B   26058.28032696  .00000036  00000+0  42995-4 0  9990
2 22285  71.0231  26.1162 0006091 304.7697  55.2852 14.15449672711688
COSMOS 2228             
1 22286U 92094A   26058.29436753  .00002009  00000+0  17134-3 0  9993
2 22286  82.5146 247.2656 0017487 341.4943  18.5641 14.97130907774504
